NORAD_CAT_ID,OBJECT_NAME,OBJECT_TYPE,EPOCH,MEAN_MOTION,ECCENTRICITY,INCLINATION,RA_OF_ASC_NODE,ARG_OF_PERICENTER,MEAN_ANOMALY,BSTAR,MEAN_MOTION_DOT,MEAN_MOTION_DDOT,TLE_LINE0,TLE_LINE1,TLE_LINE2,SEMIMAJOR_AXIS,PERIOD,APOGEE,PERIGEE,DECAYED
52460.0,STARLINK-3865,PAYLOAD,2024-01-22 05:00:53,15.08850342,0.0001893,53.2178,309.3177,117.4462,242.6723,0.00011636,1.565e-05,0.0,0 STARLINK-3865,1 52460U 22049K   24022.20895547  .00001565  00000-0  11636-3 0  9991,2 52460  53.2178 309.3177 0001893 117.4462 242.6723 15.08850342 95030,6917.849,95.437,541.023,538.404,0.0
52460.0,STARLINK-3865,PAYLOAD,2024-01-22 22:30:09,15.08836684,0.0001892,53.2172,306.0442,121.3171,238.8007,-2.0359e-05,-6.12e-06,0.0,0 STARLINK-3865,1 52460U 22049K   24022.93760550 -.00000612  00000-0 -20359-4 0  9993,2 52460  53.2172 306.0442 0001892 121.3171 238.8007 15.08836684 94981,6917.891,95.438,541.064,538.447,0.0
52460.0,STARLINK-3865,PAYLOAD,2024-01-23 01:40:55,15.08842167,0.0001899,53.2182,305.4472,120.2421,239.8759,8.6841e-05,1.094e-05,0.0,0 STARLINK-3865,1 52460U 22049K   24023.07008341  .00001094  00000-0  86841-4 0  9993,2 52460  53.2182 305.4472 0001899 120.2421 239.8759 15.08842167 95160,6917.874,95.437,541.052,538.425,0.0
52460.0,STARLINK-3865,PAYLOAD,2024-01-23 22:20:55,15.08842677,0.000198,53.2186,301.5891,119.368,240.751,6.8327e-05,7.99e-06,0.0,0 STARLINK-3865,1 52460U 22049K   24023.93120364  .00000799  00000-0  68327-4 0  9998,2 52460  53.2186 301.5891 0001980 119.3680 240.7510 15.08842677 95132,6917.872,95.437,541.107,538.367,0.0
52460.0,STARLINK-3865,PAYLOAD,2024-01-23 23:56:19,15.08844376,0.0002007,53.2189,301.2923,118.7407,241.3787,9.4539e-05,1.217e-05,0.0,0 STARLINK-3865,1 52460U 22049K   24023.99744271  .00001217  00000-0  94539-4 0  9993,2 52460  53.2189 301.2923 0002007 118.7407 241.3787 15.08844376 95141,6917.867,95.437,541.12,538.344,0.0
52460.0,STARLINK-3865,PAYLOAD,2024-01-24 22:11:43,15.08829834,0.0001965,53.2196,297.137,120.2825,239.8361,0.00020447,2.967e-05,0.0,0 STARLINK-3865,1 52460U 22049K   24024.92481257  .00002967  00000-0  20447-3 0  9998,2 52460  53.2196 297.1370 0001965 120.2825 239.8361 15.08829834 95289,6917.911,95.438,541.136,538.417,0.0
52460.0,STARLINK-3865,PAYLOAD,2024-01-25 01:22:29,15.0884076,0.00015,53.2182,296.536,88.0238,272.0926,-5.6225e-07,-2.97e-06,0.0,0 STARLINK-3865,1 52460U 22049K   24025.05728810 -.00000297  00000-0 -56225-6 0  9994,2 52460  53.2182 296.5360 0001500  88.0238 272.0926 15.08840760 95467,6917.878,95.438,540.781,538.705,0.0
52460.0,STARLINK-3865,PAYLOAD,2024-01-25 22:02:31,15.0883789,0.000149,53.2181,292.6691,79.3854,280.7306,5.3095e-06,-2.03e-06,0.0,0 STARLINK-3865,1 52460U 22049K   24025.91841683 -.00000203  00000-0  53095-5 0  9990,2 52460  53.2181 292.6691 0001490  79.3854 280.7306 15.08837890 95430,6917.887,95.438,540.783,538.721,0.0
52460.0,STARLINK-3865,PAYLOAD,2024-01-26 01:13:18,15.08792001,0.0001908,53.2189,292.074,79.6963,280.4244,0.0007021,0.00010889,0.0,0 STARLINK-3865,1 52460U 22049K   24026.05090805  .00010889  00000-0  70210-3 0  9994,2 52460  53.2189 292.0740 0001908  79.6963 280.4244 15.08792001 95617,6918.027,95.441,541.212,538.572,0.0
52460.0,STARLINK-3865,PAYLOAD,2024-01-26 17:07:08,15.08837979,0.0001715,53.2187,289.1009,75.3058,284.8124,9.6503e-05,1.248e-05,0.0,0 STARLINK-3865,1 52460U 22049K   24026.71329776  .00001248  00000-0  96503-4 0  9992,2 52460  53.2187 289.1009 0001715  75.3058 284.8124 15.08837979 95714,6917.887,95.438,540.938,538.565,0.0
52460.0,STARLINK-3865,PAYLOAD,2024-01-27 01:04:04,15.08810813,0.0001761,53.2186,287.6163,87.1356,272.9838,0.00069274,0.00010745,0.0,0 STARLINK-3865,1 52460U 22049K   24027.04450047  .00010745  00000-0  69274-3 0  9991,2 52460  53.2186 287.6163 0001761  87.1356 272.9838 15.08810813 95763,6917.97,95.439,541.053,538.616,0.0
52460.0,STARLINK-3865,PAYLOAD,2024-01-27 21:44:04,15.08844212,0.0001577,53.2182,283.7498,86.9131,273.2041,0.00010007,1.305e-05,0.0,0 STARLINK-3865,1 52460U 22049K   24027.90561205  .00001305  00000-0  10007-3 0  9997,2 52460  53.2182 283.7498 0001577  86.9131 273.2041 15.08844212 95737,6917.868,95.437,540.823,538.642,0.0
52460.0,STARLINK-3865,PAYLOAD,2024-01-27 23:19:27,15.088434,0.0001648,53.2184,283.4538,88.2988,271.8193,0.00012912,1.768e-05,0.0,0 STARLINK-3865,1 52460U 22049K   24027.97185173  .00001768  00000-0  12912-3 0  9990,2 52460  53.2184 283.4538 0001648  88.2988 271.8193 15.08843400 95904,6917.87,95.437,540.875,538.595,0.0
52460.0,STARLINK-3865,PAYLOAD,2024-01-28 21:34:51,15.08845277,0.0001351,53.2178,279.2877,97.1528,262.9618,-9.3548e-06,-4.37e-06,0.0,0 STARLINK-3865,1 52460U 22049K   24028.89921137 -.00000437  00000-0 -93548-5 0  9990,2 52460  53.2178 279.2877 0001351  97.1528 262.9618 15.08845277 95880,6917.864,95.437,540.664,538.795,0.0
52460.0,STARLINK-3865,PAYLOAD,2024-01-29 16:39:29,15.08841496,0.000152,53.2171,275.7184,108.5313,251.5844,6.5356e-05,7.52e-06,0.0,0 STARLINK-3865,1 52460U 22049K   24029.69408875  .00000752  00000-0  65356-4 0  9991,2 52460  53.2171 275.7184 0001520 108.5313 251.5844 15.08841496 96168,6917.876,95.437,540.792,538.689,0.0
52460.0,STARLINK-3865,PAYLOAD,2024-01-30 19:41:02,15.08840046,0.0001445,53.2172,270.6608,110.4973,249.6174,5.5007e-05,5.88e-06,0.0,0 STARLINK-3865,1 52460U 22049K   24030.82016962  .00000588  00000-0  55007-4 0  9999,2 52460  53.2172 270.6608 0001445 110.4973 249.6174 15.08840046 96337,6917.88,95.438,540.745,538.746,0.0
52460.0,STARLINK-3865,PAYLOAD,2024-01-30 22:51:48,15.0883993,0.0001368,53.2173,270.0684,104.5497,255.5647,4.3787e-05,4.09e-06,0.0,0 STARLINK-3865,1 52460U 22049K   24030.95265005  .00000409  00000-0  43787-4 0  9991,2 52460  53.2173 270.0684 0001368 104.5497 255.5647 15.08839930 96190,6917.881,95.438,540.692,538.799,0.0
52460.0,STARLINK-3865,PAYLOAD,2024-01-31 14:45:40,15.08835087,0.0001458,53.2182,267.1013,101.0894,259.0262,3.0432e-05,1.96e-06,0.0,0 STARLINK-3865,1 52460U 22049K   24031.61505520  .00000196  00000-0  30432-4 0  9990,2 52460  53.2182 267.1013 0001458 101.0894 259.0262 15.08835087 96298,6917.895,95.438,540.769,538.752,0.0
52460.0,STARLINK-3865,PAYLOAD,2024-02-01 14:36:28,15.0883371,0.0001513,53.2183,262.6382,97.6106,262.5059,5.7793e-05,6.32e-06,0.0,0 STARLINK-3865,1 52460U 22049K   24032.60865867  .00000632  00000-0  57793-4 0  9997,2 52460  53.2183 262.6382 0001513  97.6106 262.5059 15.08833710 96447,6917.9,95.438,540.811,538.718,0.0
52460.0,STARLINK-3865,PAYLOAD,2024-02-02 00:08:46,15.08838691,0.0001558,53.2184,260.8535,100.8459,259.2708,9.6072e-05,1.241e-05,0.0,0 STARLINK-3865,1 52460U 22049K   24033.00609544  .00001241  00000-0  96072-4 0  9990,2 52460  53.2184 260.8535 0001558 100.8459 259.2708 15.08838691 96666,6917.884,95.438,540.827,538.672,0.0
52460.0,STARLINK-3865,PAYLOAD,2024-02-02 22:24:10,15.08840286,0.0001481,53.2169,256.6896,81.1678,278.9482,0.0001014,1.326e-05,0.0,0 STARLINK-3865,1 52460U 22049K   24033.93345617  .00001326  00000-0  10140-3 0  9995,2 52460  53.2169 256.6896 0001481  81.1678 278.9482 15.08840286 96649,6917.88,95.438,540.769,538.72,0.0
52460.0,STARLINK-3865,PAYLOAD,2024-02-03 20:39:34,15.08841356,0.0001456,53.2165,252.5257,81.2155,278.9002,2.4266e-05,9.8e-07,0.0,0 STARLINK-3865,1 52460U 22049K   24034.86081780  .00000098  00000-0  24266-4 0  9996,2 52460  53.2165 252.5257 0001456  81.2155 278.9002 15.08841356 96944,6917.876,95.437,540.748,538.734,0.0
52460.0,STARLINK-3865,PAYLOAD,2024-02-04 20:30:21,15.08846243,0.0001528,53.2164,248.0645,75.9705,284.1457,7.056e-05,8.35e-06,0.0,0 STARLINK-3865,1 52460U 22049K   24035.85441188  .00000835  00000-0  70560-4 0  9995,2 52460  53.2164 248.0645 0001528  75.9705 284.1457 15.08846243 96937,6917.861,95.437,540.783,538.669,0.0
52460.0,STARLINK-3865,PAYLOAD,2024-02-04 23:41:07,15.08848709,0.00015,53.2162,247.469,77.908,282.208,9.1044e-05,1.162e-05,0.0,0 STARLINK-3865,1 52460U 22049K   24035.98688899  .00001162  00000-0  91044-4 0  9995,2 52460  53.2162 247.4690 0001500  77.9080 282.2080 15.08848709 97117,6917.854,95.437,540.756,538.681,0.0
52460.0,STARLINK-3865,PAYLOAD,2024-02-05 07:38:03,15.08843668,0.0001401,53.2157,245.981,82.8454,277.2697,7.7912e-05,9.52e-06,0.0,0 STARLINK-3865,1 52460U 22049K   24036.31809140  .00000952  00000-0  77912-4 0  9991,2 52460  53.2157 245.9810 0001401  82.8454 277.2697 15.08843668 97003,6917.869,95.437,540.703,538.765,0.0
52460.0,STARLINK-3865,PAYLOAD,2024-02-05 20:21:08,15.08839852,0.0001606,53.2164,243.5995,113.5396,246.5765,-7.0761e-06,-4.01e-06,0.0,0 STARLINK-3865,1 52460U 22049K   24036.84801517 -.00000401  00000-0 -70761-5 0  9996,2 52460  53.2164 243.5995 0001606 113.5396 246.5765 15.08839852 97244,6917.881,95.438,540.857,538.635,0.0
52460.0,STARLINK-3865,PAYLOAD,2024-02-06 18:36:32,15.08839563,0.0001684,53.2173,239.4346,117.3926,242.7237,2.8157e-05,1.6e-06,0.0,0 STARLINK-3865,1 52460U 22049K   24037.77537415  .00000160  00000-0  28157-4 0  9993,2 52460  53.2173 239.4346 0001684 117.3926 242.7237 15.08839563 97224,6917.882,95.438,540.912,538.582,0.0
52460.0,STARLINK-3865,PAYLOAD,2024-02-07 04:08:51,15.0883307,0.0001452,53.2161,237.6515,115.1684,244.9459,-3.1793e-05,-7.94e-06,0.0,0 STARLINK-3865,1 52460U 22049K   24038.17281977 -.00000794  00000-0 -31793-4 0  9992,2 52460  53.2161 237.6515 0001452 115.1684 244.9459 15.08833070 97440,6917.902,95.438,540.771,538.762,0.0
52460.0,STARLINK-3865,PAYLOAD,2024-02-07 13:41:10,15.08831228,0.000134,53.2152,235.8711,89.7468,270.3678,5.2825e-05,5.53e-06,0.0,0 STARLINK-3865,1 52460U 22049K   24038.57026203  .00000553  00000-0  52825-4 0  9995,2 52460  53.2152 235.8711 0001340  89.7468 270.3678 15.08831228 97348,6917.907,95.438,540.699,538.845,0.0
52460.0,STARLINK-3865,PAYLOAD,2024-02-07 20:02:42,15.088373,0.0001324,53.2157,234.6817,91.6114,268.503,7.7091e-05,9.39e-06,0.0,0 STARLINK-3865,1 52460U 22049K   24038.83521985  .00000939  00000-0  77091-4 0  9991,2 52460  53.2157 234.6817 0001324  91.6114 268.5030 15.08837300 97381,6917.889,95.438,540.67,538.838,0.0
